NORAD_CAT_ID,OBJECT_NAME,OBJECT_TYPE,EPOCH,MEAN_MOTION,ECCENTRICITY,INCLINATION,RA_OF_ASC_NODE,ARG_OF_PERICENTER,MEAN_ANOMALY,BSTAR,MEAN_MOTION_DOT,MEAN_MOTION_DDOT,TLE_LINE0,TLE_LINE1,TLE_LINE2,SEMIMAJOR_AXIS,PERIOD,APOGEE,PERIGEE,DECAYED
52273.0,STARLINK-3782,PAYLOAD,2023-11-23 02:46:18,15.08855992,0.0001375,53.2171,259.5225,96.4916,263.6233,0.00018679,2.687e-05,0.0,0 STARLINK-3782,1 52273U 22041N   23327.11549140  .00002687  00000-0  18679-3 0  9997,2 52273  53.2171 259.5225 0001375  96.4916 263.6233 15.08855992 89274,6917.832,95.437,540.648,538.745,0.0
52273.0,STARLINK-3782,PAYLOAD,2023-11-24 01:01:43,15.08830752,0.0001391,53.217,255.3589,92.5689,267.5462,-0.00011772,-2.16e-05,0.0,0 STARLINK-3782,1 52273U 22041N   23328.04286893 -.00002160  00000-0 -11772-3 0  9998,2 52273  53.2170 255.3589 0001391  92.5689 267.5462 15.08830752 89412,6917.909,95.438,540.736,538.811,0.0
52273.0,STARLINK-3782,PAYLOAD,2023-11-24 18:30:58,15.08833923,0.000141,53.2172,252.0898,93.0893,267.026,9.9099e-05,1.289e-05,0.0,0 STARLINK-3782,1 52273U 22041N   23328.77151278  .00001289  00000-0  99099-4 0  9994,2 52273  53.2172 252.0898 0001410  93.0893 267.0260 15.08833923 88307,6917.899,95.438,540.739,538.789,0.0
52273.0,STARLINK-3782,PAYLOAD,2023-11-25 02:27:54,15.08842155,0.0001559,53.2176,250.6031,80.7728,279.3441,0.00027065,4.022e-05,0.0,0 STARLINK-3782,1 52273U 22041N   23329.10271204  .00004022  00000-0  27065-3 0  9995,2 52273  53.2176 250.6031 0001559  80.7728 279.3441 15.08842155 89572,6917.874,95.437,540.817,538.66,0.0
52273.0,STARLINK-3782,PAYLOAD,2023-11-25 04:03:17,15.08846568,0.0001506,53.2172,250.305,88.0843,272.0321,0.00038194,5.797e-05,0.0,0 STARLINK-3782,1 52273U 22041N   23329.16895077  .00005797  00000-0  38194-3 0  9996,2 52273  53.2172 250.3050 0001506  88.0843 272.0321 15.08846568 88362,6917.86,95.437,540.767,538.683,0.0
52273.0,STARLINK-3782,PAYLOAD,2023-11-25 18:21:45,15.0885586,0.000155,53.217,247.6289,86.7373,273.3797,0.00055582,8.573e-05,0.0,0 STARLINK-3782,1 52273U 22041N   23329.76510792  .00008573  00000-0  55582-3 0  9995,2 52273  53.2170 247.6289 0001550  86.7373 273.3797 15.08855860 88451,6917.832,95.437,540.769,538.625,0.0
52273.0,STARLINK-3782,PAYLOAD,2023-11-26 02:18:39,15.08908864,0.000155,53.2173,246.1419,81.3821,278.7347,0.0022338,0.0003551,0.0,0 STARLINK-3782,1 52273U 22041N   23330.09629248  .00035510  00000-0  22338-2 0  9993,2 52273  53.2173 246.1419 0001550  81.3821 278.7347 15.08908864 89726,6917.67,95.433,540.607,538.463,0.0
52273.0,STARLINK-3782,PAYLOAD,2023-11-26 03:54:02,15.0890774,0.0001318,53.2168,245.8435,101.4893,258.6248,0.0019936,0.00031642,0.0,0 STARLINK-3782,1 52273U 22041N   23330.16252791  .00031642  00000-0  19936-2 0  9998,2 52273  53.2168 245.8435 0001318 101.4893 258.6248 15.08907740 88514,6917.673,95.433,540.45,538.627,0.0
52273.0,STARLINK-3782,PAYLOAD,2023-11-26 18:12:30,15.08861394,0.0001827,53.2175,243.1689,93.5382,266.5819,-0.0001524,-2.714e-05,0.0,0 STARLINK-3782,1 52273U 22041N   23330.75868863 -.00002714  00000-0 -15240-3 0  9991,2 52273  53.2175 243.1689 0001827  93.5382 266.5819 15.08861394 89824,6917.815,95.436,540.944,538.416,0.0
52273.0,STARLINK-3782,PAYLOAD,2023-11-27 00:34:03,15.08818998,0.000168,53.2174,241.9789,80.3168,279.8014,-0.0013239,-0.00021284,0.0,0 STARLINK-3782,1 52273U 22041N   23331.02365512 -.00021284  00000-0 -13239-2 0  9993,2 52273  53.2174 241.9789 0001680  80.3168 279.8014 15.08818998 89863,6917.945,95.439,540.972,538.647,0.0
52273.0,STARLINK-3782,PAYLOAD,2023-11-27 18:03:19,15.08823883,0.0001562,53.2186,238.7055,103.0526,257.064,2.0232e-05,3.4e-07,0.0,0 STARLINK-3782,1 52273U 22041N   23331.75230594  .00000034  00000-0  20232-4 0  9995,2 52273  53.2186 238.7055 0001562 103.0526 257.0640 15.08823883 89970,6917.93,95.439,540.875,538.714,0.0
52273.0,STARLINK-3782,PAYLOAD,2023-11-28 03:35:38,15.08837737,0.0001695,53.2178,236.9226,92.5594,267.5592,0.0010363,0.00016242,0.0,0 STARLINK-3782,1 52273U 22041N   23332.14975134  .00016242  00000-0  10363-2 0  9995,2 52273  53.2178 236.9226 0001695  92.5594 267.5592 15.08837737 90039,6917.887,95.438,540.925,538.58,0.0
52273.0,STARLINK-3782,PAYLOAD,2023-11-28 17:54:06,15.08838834,0.0001745,53.217,234.245,99.1735,260.9455,0.0005347,8.232e-05,0.0,0 STARLINK-3782,1 52273U 22041N   23332.74591420  .00008232  00000-0  53470-3 0  9990,2 52273  53.2170 234.2450 0001745  99.1735 260.9455 15.08838834 90121,6917.884,95.438,540.956,538.542,0.0
52273.0,STARLINK-3782,PAYLOAD,2023-11-28 22:40:15,15.08863437,0.0002027,53.2169,233.3539,122.3378,237.7811,0.0011175,0.00017553,0.0,0 STARLINK-3782,1 52273U 22041N   23332.94462719  .00017553  00000-0  11175-2 0  9991,2 52273  53.2169 233.3539 0002027 122.3378 237.7811 15.08863437 88934,6917.809,95.436,541.076,538.272,0.0
52273.0,STARLINK-3782,PAYLOAD,2023-11-29 03:26:25,15.08861388,0.0001522,53.2165,232.4622,93.4271,266.6895,0.0010979,0.00017238,0.0,0 STARLINK-3782,1 52273U 22041N   23333.14334957  .00017238  00000-0  10979-2 0  9997,2 52273  53.2165 232.4622 0001522  93.4271 266.6895 15.08861388 90188,6917.815,95.436,540.733,538.627,0.0
52273.0,STARLINK-3782,PAYLOAD,2023-11-30 00:06:25,15.08891043,0.0001509,53.2163,228.597,109.2236,250.892,0.0019217,0.00030471,0.0,0 STARLINK-3782,1 52273U 22041N   23334.00446463  .00030471  00000-0  19217-2 0  9997,2 52273  53.2163 228.5970 0001509 109.2236 250.8920 15.08891043 90310,6917.724,95.434,540.633,538.545,0.0
52273.0,STARLINK-3782,PAYLOAD,2023-11-30 23:57:13,15.08820589,0.0001507,53.2159,224.136,84.5307,275.5857,-0.00043547,-7.208e-05,0.0,0 STARLINK-3782,1 52273U 22041N   23334.99807292 -.00007208  00000-0 -43547-3 0  9994,2 52273  53.2159 224.1360 0001507  84.5307 275.5857 15.08820589 90468,6917.94,95.439,540.847,538.762,0.0
52273.0,STARLINK-3782,PAYLOAD,2023-12-01 04:43:23,15.08822421,0.0001514,53.2157,223.2437,76.4684,283.6477,0.00012845,1.756e-05,0.0,0 STARLINK-3782,1 52273U 22041N   23335.19679709  .00001756  00000-0  12845-3 0  9994,2 52273  53.2157 223.2437 0001514  76.4684 283.6477 15.08822421 90495,6917.934,95.439,540.846,538.752,0.0
52273.0,STARLINK-3782,PAYLOAD,2023-12-01 22:12:37,15.0887819,0.0001585,53.2147,219.9719,71.175,288.9414,0.0022592,0.00035888,0.0,0 STARLINK-3782,1 52273U 22041N   23335.92543324  .00035888  00000-0  22592-2 0  9990,2 52273  53.2147 219.9719 0001585  71.1750 288.9414 15.08878190 89382,6917.764,95.435,540.725,538.532,0.0
52273.0,STARLINK-3782,PAYLOAD,2023-12-01 23:48:00,15.08884993,0.0001556,53.2148,219.676,74.4754,285.641,0.0024647,0.00039205,0.0,0 STARLINK-3782,1 52273U 22041N   23335.99167166  .00039205  00000-0  24647-2 0  9993,2 52273  53.2148 219.6760 0001556  74.4754 285.6410 15.08884993 90610,6917.743,95.435,540.684,538.531,0.0
52273.0,STARLINK-3782,PAYLOAD,2023-12-02 02:58:46,15.08917263,0.0001464,53.2147,219.0823,83.2435,276.8724,0.0043006,0.00068972,0.0,0 STARLINK-3782,1 52273U 22041N   23336.12414659  .00068972  00000-0  43006-2 0  9994,2 52273  53.2147 219.0823 0001464  83.2435 276.8724 15.08917263 90634,6917.644,95.433,540.522,538.496,0.0
52273.0,STARLINK-3782,PAYLOAD,2023-12-02 22:03:24,15.08841728,0.0001298,53.2149,215.4991,103.4939,256.6197,0.0010643,0.00016692,0.0,0 STARLINK-3782,1 52273U 22041N   23336.91903354  .00016692  00000-0  10643-2 0  9999,2 52273  53.2149 215.4991 0001298 103.4939 256.6197 15.08841728 89530,6917.875,95.437,540.638,538.842,0.0
52273.0,STARLINK-3782,PAYLOAD,2023-12-02 23:38:47,15.08829016,0.0001487,53.2145,215.2194,102.8384,257.2775,0.00065934,0.00010218,0.0,0 STARLINK-3782,1 52273U 22041N   23336.98527657  .00010218  00000-0  65934-3 0  9996,2 52273  53.2145 215.2194 0001487 102.8384 257.2775 15.08829016 90768,6917.914,95.438,540.808,538.75,0.0
52273.0,STARLINK-3782,PAYLOAD,2023-12-03 20:18:49,15.0882615,0.0001567,53.214,211.3568,93.4345,266.6826,0.0004161,6.338e-05,0.0,0 STARLINK-3782,1 52273U 22041N   23337.84640809  .00006338  00000-0  41610-3 0  9990,2 52273  53.2140 211.3568 0001567  93.4345 266.6826 15.08826150 90897,6917.923,95.438,540.872,538.704,0.0
52273.0,STARLINK-3782,PAYLOAD,2023-12-04 15:23:27,15.08845068,0.0001405,53.2143,207.7817,106.7754,253.3393,0.00063771,9.877e-05,0.0,0 STARLINK-3782,1 52273U 22041N   23338.64128698  .00009877  00000-0  63771-3 0  9999,2 52273  53.2143 207.7817 0001405 106.7754 253.3393 15.08845068 89797,6917.865,95.437,540.702,538.758,0.0
52273.0,STARLINK-3782,PAYLOAD,2023-12-05 00:55:45,15.08857864,0.000139,53.2144,205.9994,105.6366,254.4779,0.00071905,0.0001118,0.0,0 STARLINK-3782,1 52273U 22041N   23339.03872180  .00011180  00000-0  71905-3 0  9993,2 52273  53.2144 205.9994 0001390 105.6366 254.4779 15.08857864 91075,6917.826,95.436,540.652,538.729,0.0
52273.0,STARLINK-3782,PAYLOAD,2023-12-06 00:46:32,15.08851348,0.0002473,53.2154,201.5385,73.5806,286.5458,0.00039974,6.081e-05,0.0,0 STARLINK-3782,1 52273U 22041N   23340.03232568  .00006081  00000-0  39974-3 0  9999,2 52273  53.2154 201.5385 0002473  73.5806 286.5458 15.08851348 91225,6917.846,95.437,541.421,538.0,0.0
52273.0,STARLINK-3782,PAYLOAD,2023-12-07 00:37:19,15.0884137,0.0001118,53.2154,197.0774,92.1337,267.9783,0.00012351,1.678e-05,0.0,0 STARLINK-3782,1 52273U 22041N   23341.02592047  .00001678  00000-0  12351-3 0  9997,2 52273  53.2154 197.0774 0001118  92.1337 267.9783 15.08841370 91371,6917.876,95.437,540.515,538.968,0.0
52273.0,STARLINK-3782,PAYLOAD,2023-12-08 13:11:11,15.08841561,0.0001931,53.2151,190.2389,81.2734,278.8477,8.6745e-05,1.093e-05,0.0,0 STARLINK-3782,1 52273U 22041N   23342.54944312  .00001093  00000-0  86745-4 0  9991,2 52273  53.2151 190.2389 0001931  81.2734 278.8477 15.08841561 90381,6917.876,95.437,541.076,538.405,0.0
52273.0,STARLINK-3782,PAYLOAD,2023-12-10 00:09:41,15.08831526,0.0002071,53.2099,183.6962,81.6235,278.4992,-5.5323e-05,-1.168e-05,0.0,0 STARLINK-3782,1 52273U 22041N   23344.00673093 -.00001168  00000-0 -55323-4 0  9992,2 52273  53.2099 183.6962 0002071  81.6235 278.4992 15.08831526 91829,6917.906,95.438,541.204,538.339,0.0
